STARLINK-31721          
1 59536U 24074C   26068.14238197 -.00000369  00000+0 -38775-5 0  9996
2 59536  43.0039 346.3569 0000975 263.6661  96.4079 15.27570564105931
HYPERFIELD-1A           
1 60562U 24149CY  26068.76488211  .00008569  00000+0  30052-3 0  9998
2 60562  97.3842 149.5066 0003865 313.7844  46.3076 15.29681349 86836
